H1 CPF 01  gfz 2022 07 10 12  6912 terrasarx 
H2 0702601  6201 31698    2022 07 10 12 59 42 2022 07 15 00 00 42   120 1 1  0 0 0
H9
10 0 59770  79902.000000  0    -670332.425   3036183.455  -6153843.004
10 0 59770  80022.000000  0    -221826.548   2309667.616  -6492768.948
10 0 59770  80142.000000  0     217392.767   1535363.427  -6718388.407
10 0 59770  80262.000000  0     638999.665    726936.019  -6826819.443
10 0 59770  80382.000000  0    1035223.180   -101233.522  -6816199.485
10 0 59770  80502.000000  0    1398986.815   -934299.425  -6686713.227
10 0 59770  80622.000000  0    1724031.295  -1757210.701  -6440588.280
10 0 59770  80742.000000  0    2005020.296  -2554975.606  -6082061.357
10 0 59770  80862.000000  0    2237627.727  -3312929.089  -5617314.316
10 0 59770  80982.000000  0    2418605.345  -4017001.919  -5054379.201
10 0 59770  81102.000000  0    2545828.705  -4653983.451  -4403008.582
10 0 59770  81222.000000  0    2618320.434  -5211771.938  -3674517.126
10 0 59770  81342.000000  0    2636250.448  -5679611.791  -2881595.239
10 0 59770  81462.000000  0    2600913.037  -6048310.618  -2038094.062
10 0 59770  81582.000000  0    2514681.128  -6310430.721  -1158786.439
10 0 59770  81702.000000  0    2380937.245  -6460449.670   -259105.721
10 0 59770  81822.000000  0    2203982.068  -6494882.441    645131.296
10 0 59770  81942.000000  0    1988924.188  -6412364.795   1538009.001
10 0 59770  82062.000000  0    1741553.438  -6213694.599   2403803.257
10 0 59770  82182.000000  0    1468199.276  -5901827.195   3227267.397
10 0 59770  82302.000000  0    1175580.314  -5481828.140   3993907.348
10 0 59770  82422.000000  0     870647.704  -4960784.019   4690240.691
10 0 59770  82542.000000  0     560426.689  -4347675.426   5304035.720
10 0 59770  82662.000000  0     251859.298  -3653212.430   5824526.225
10 0 59770  82782.000000  0     -48346.244  -2889636.980   6242596.403
10 0 59770  82902.000000  0    -333857.561  -2070499.435   6550933.439
10 0 59770  83022.000000  0    -598848.357  -1210414.552   6744148.704
10 0 59770  83142.000000  0    -838114.857   -324799.016   6818867.443
10 0 59770  83262.000000  0   -1047176.629    570406.074   6773784.754
10 0 59770  83382.000000  0   -1222359.978   1459022.063   6609686.685
10 0 59770  83502.000000  0   -1360862.151   2324924.342   6329437.212
10 0 59770  83622.000000  0   -1460796.300   3152334.684   5937931.570
10 0 59770  83742.000000  0   -1521216.464   3926110.054   5442015.536
10 0 59770  83862.000000  0   -1542121.175   4632022.895   4850372.142
10 0 59770  83982.000000  0   -1524437.053   5257029.435   4173375.875
10 0 59770  84102.000000  0   -1469981.215   5789518.870   3422914.505
10 0 59770  84222.000000  0   -1381404.594   6219537.910   2612182.851
10 0 59770  84342.000000  0   -1262117.471   6538987.264   1755449.869
10 0 59770  84462.000000  0   -1116195.415   6741783.144    867802.858
10 0 59770  84582.000000  0    -948270.732   6823978.769    -35124.431
10 0 59770  84702.000000  0    -763411.804   6783845.478   -937434.903
10 0 59770  84822.000000  0    -566992.592   6621908.152  -1823259.143
10 0 59770  84942.000000  0    -364556.869   6340931.789  -2677043.643
10 0 59770  85062.000000  0    -161681.247   5945864.198  -3483828.365
10 0 59770  85182.000000  0      36160.524   5443737.949  -4229510.550
10 0 59770  85302.000000  0     223729.030   4843533.114  -4901090.205
10 0 59770  85422.000000  0     396143.057   4156004.644  -5486891.962
10 0 59770  85542.000000  0     548993.081   3393479.100  -5976760.477
10 0 59770  85662.000000  0     678441.391   2569625.062  -6362226.315
10 0 59770  85782.000000  0     781307.508   1699203.611  -6636640.579
10 0 59770  85902.000000  0     855137.774    797804.064  -6795278.623
10 0 59770  86022.000000  0     898257.490   -118432.104  -6835413.094
10 0 59770  86142.000000  0     909805.501  -1033095.214  -6756355.550
10 0 59770  86262.000000  0     889750.152  -1929794.160  -6559465.153
10 0 59770  86382.000000  0     838887.412  -2792441.263  -6248127.765
10 0 59771    102.000000  0     758820.919  -3605535.639  -5827706.669
10 0 59771    222.000000  0     651922.836  -4354440.783  -5305459.111
10 0 59771    342.000000  0     521278.170  -5025648.500  -4690421.432
10 0 59771    462.000000  0     370611.949  -5607027.652  -3993264.606
10 0 59771    582.000000  0     204200.440  -6088052.514  -3226118.820
10 0 59771    702.000000  0      26768.359  -6460004.180  -2402369.635
10 0 59771    822.000000  0    -156625.797  -6716141.897  -1536428.894
10 0 59771    942.000000  0    -340714.083  -6851838.321   -643481.821
10 0 59771   1062.000000  0    -520149.973  -6864673.498    260783.413
10 0 59771   1182.000000  0    -689642.540  -6754485.552   1160457.469
10 0 59771   1302.000000  0    -844090.752  -6523377.257   2039697.956
10 0 59771   1422.000000  0    -978714.202  -6175676.257   2883018.029
10 0 59771   1542.000000  0   -1089176.056  -5717849.850   3675568.338
10 0 59771   1662.000000  0   -1171695.264  -5158375.979   4403404.412
10 0 59771   1782.000000  0   -1223146.737  -4507576.694   5053733.811
10 0 59771   1902.000000  0   -1241145.525  -3777418.992   5615141.270
10 0 59771   2022.000000  0   -1224114.345  -2981284.672   6077787.834
10 0 59771   2142.000000  0   -1171331.589  -2133715.577   6433577.241
10 0 59771   2262.000000  0   -1082959.618  -1250143.632   6676290.189
10 0 59771   2382.000000  0    -960054.298   -346607.577   6801688.019
10 0 59771   2502.000000  0    -804555.295    560539.373   6807581.979
10 0 59771   2622.000000  0    -619255.659   1454924.930   6693869.378
10 0 59771   2742.000000  0    -407751.345   2320452.858   6462535.344
10 0 59771   2862.000000  0    -174372.043   3141592.360   6117620.162
10 0 59771   2982.000000  0      75905.223   3903657.659   5665153.206
10 0 59771   3102.000000  0     337558.395   4593073.956   5113052.948
10 0 59771   3222.000000  0     604637.920   5197624.825   4470995.041
10 0 59771   3342.000000  0     870896.452   5706677.020   3750246.534
10 0 59771   3462.000000  0    1129926.866   6111374.201   2963473.047
10 0 59771   3582.000000  0    1375310.756   6404806.297   2124518.622
10 0 59771   3702.000000  0    1600767.946   6582134.939   1248155.216
10 0 59771   3822.000000  0    1800305.727   6640679.288    349816.976
10 0 59771   3942.000000  0    1968364.012   6579957.584   -554679.648
10 0 59771   4062.000000  0    2099951.927   6401684.954  -1449422.365
10 0 59771   4182.000000  0    2190773.199   6109727.920  -2318690.533
10 0 59771   4302.000000  0    2237337.177   5710016.576  -3147238.074
10 0 59771   4422.000000  0    2237052.623   5210416.234  -3920565.845
10 0 59771   4542.000000  0    2188301.771   4620561.454  -4625176.634
10 0 59771   4662.000000  0    2090492.837   3951658.862  -5248807.150
10 0 59771   4782.000000  0    1944091.098   3216264.796  -5780634.069
10 0 59771   4902.000000  0    1750627.939   2428042.578  -6211452.763
10 0 59771   5022.000000  0    1512687.578   1601504.211  -6533825.101
10 0 59771   5142.000000  0    1233873.548    751743.492  -6742196.262
10 0 59771   5262.000000  0     918754.312   -105836.685  -6832981.557
10 0 59771   5382.000000  0     572788.379   -955798.803  -6804621.036
10 0 59771   5502.000000  0     202231.240  -1782941.992  -6657601.717
10 0 59771   5622.000000  0    -185974.160  -2572565.591  -6394450.055
10 0 59771   5742.000000  0    -584323.852  -3310725.519  -6019695.308
10 0 59771   5862.000000  0    -984893.622  -3984478.389  -5539798.973
10 0 59771   5982.000000  0   -1379491.517  -4582108.546  -4963054.424
10 0 59771   6102.000000  0   -1759821.102  -5093336.740  -4299455.569
10 0 59771   6222.000000  0   -2117652.421  -5509504.903  -3560534.057
10 0 59771   6342.000000  0   -2444996.770  -5823732.482  -2759167.229
10 0 59771   6462.000000  0   -2734281.559  -6031041.150  -1909359.532
10 0 59771   6582.000000  0   -2978521.544  -6128445.008  -1025999.862
10 0 59771   6702.000000  0   -3171482.065  -6115002.395   -124597.946
10 0 59771   6822.000000  0   -3307829.121  -5991826.047    778994.264
10 0 59771   6942.000000  0   -3383262.533  -5762051.960   1668869.423
10 0 59771   7062.000000  0   -3394628.763  -5430766.960   2529354.294
10 0 59771   7182.000000  0   -3340009.992  -5004896.536   3345294.264
10 0 59771   7302.000000  0   -3218787.476  -4493057.098   4102326.956
10 0 59771   7422.000000  0   -3031677.876  -3905375.936   4787139.582
10 0 59771   7542.000000  0   -2780742.116  -3253283.214   5387704.302
10 0 59771   7662.000000  0   -2469366.091  -2549282.256   5893487.715
10 0 59771   7782.000000  0   -2102214.280  -1806704.265   6295631.189
10 0 59771   7902.000000  0   -1685157.750  -1039452.166   6587101.895
10 0 59771   8022.000000  0   -1225176.738   -261736.010   6762810.023
10 0 59771   8142.000000  0    -730242.525    512190.792   6819689.580
10 0 59771   8262.000000  0    -209179.739   1268291.225   6756749.167
10 0 59771   8382.000000  0     328490.885   1992999.018   6575088.649
10 0 59771   8502.000000  0     872726.272   2673462.043   6277880.849
10 0 59771   8622.000000  0    1413147.736   3297770.080   5870319.264
10 0 59771   8742.000000  0    1939237.851   3855165.570   5359533.099
10 0 59771   8862.000000  0    2440545.078   4336233.659   4754469.016
10 0 59771   8982.000000  0    2906893.063   4733067.202   4065739.398
10 0 59771   9102.000000  0    3328587.795   5039401.984   3305440.172
10 0 59771   9222.000000  0    3696621.341   5250723.686   2486942.608
10 0 59771   9342.000000  0    4002867.887   5364340.362   1624654.038
10 0 59771   9462.000000  0    4240261.191   5379415.076    733759.932
10 0 59771   9582.000000  0    4402954.545   5296965.302   -170050.706
10 0 59771   9702.000000  0    4486456.094   5119820.457  -1070871.256
10 0 59771   9822.000000  0    4487738.144   4852543.775  -1952864.901
10 0 59771   9942.000000  0    4405316.482   4501320.435  -2800550.380
99
